0 IRIDIUM 33 DEB
1 37549U 97051XJ  13280.93225359  .00005186  00000-0  19424-2 0  2234
2 37549 086.3971 145.1055 0062548 013.3989 346.8841 14.30500845218996
0 IRIDIUM 33 DEB
1 37549U 97051XJ  13284.35972162  .00005329  00000-0  19941-2 0  2249
2 37549 086.3968 143.6807 0062895 002.6786 357.4982 14.30537914219487
0 IRIDIUM 33 DEB
1 37549U 97051XJ  13285.33897516  .00005650  00000-0  21142-2 0  2251
2 37549 086.3940 143.2698 0062836 358.9020 001.2345 14.30551457219625
0 IRIDIUM 33 DEB
1 37549U 97051XJ  13288.34663819  .00006363  00000-0  23829-2 0  2269
2 37549 086.3964 142.0241 0060819 349.2615 010.8060 14.30593028220053
0 IRIDIUM 33 DEB
1 37549U 97051XJ  13289.32584338  .00006573  00000-0  24614-2 0  2273
2 37549 086.3945 141.6197 0060523 346.1364 013.8490 14.30608274220191
0 IRIDIUM 33 DEB
1 37549U 97051XJ  13293.31256045  .00007551  00000-0  28256-2 0  2282
2 37549 086.3953 139.9605 0060103 332.8393 027.0646 14.30672826220769
0 IRIDIUM 33 DEB
1 37549U 97051XJ  13294.85122708  .00007554  00000-0  28256-2 0  2294
2 37549 086.3955 139.3226 0059943 328.6817 031.0651 14.30695591220987
